{
    "week": 294,
    "satellites": [
        {
            "Name": "BEIDOU-2 G6 (C02)",
            "Line1": "1 38953U 12059A   24333.53175844 -.00000150  00000+0  00000+0 0  9992",
            "Line2": "2 38953   2.9791  79.1544 0007326 290.8844 333.3650  1.00273299 44230",
            "SatelliteNumber": "38953",
            "Classification": "U",
            "LaunchYear": "12",
            "LaunchNumber": "059",
            "PieceOfLaunch": "A",
            "EpochYear": "24",
            "EpochDay": 333.53175844,
            "FirstDerivativeMeanMotion": -1.5e-06,
            "SecondDerivativeMeanMotion": "00000+0",
            "BSTAR": "00000+0",
            "SetNumber": "999",
            "Inclination": 2.9791,
            "RAAN": 79.1544,
            "Eccentricity": 0.0007326,
            "ArgumentOfPerigee": 290.8844,
            "MeanAnomaly": 333.365,
            "MeanMotion": 1.00273299,
            "RevolutionNumber": "4423"
        },
        {
            "Name": "BEIDOU-3S IGSO-1S (C31)",
            "Line1": "1 40549U 15019A   24333.39118571 -.00000190  00000+0  00000+0 0  9997",
            "Line2": "2 40549  50.2698 302.2445 0034995 198.7701 164.1598  1.00268362 35401",
            "SatelliteNumber": "40549",
            "Classification": "U",
            "LaunchYear": "15",
            "LaunchNumber": "019",
            "PieceOfLaunch": "A",
            "EpochYear": "24",
            "EpochDay": 333.39118571,
            "FirstDerivativeMeanMotion": -1.9e-06,
            "SecondDerivativeMeanMotion": "00000+0",
            "BSTAR": "00000+0",
            "SetNumber": "999",
            "Inclination": 50.2698,
            "RAAN": 302.2445,
            "Eccentricity": 0.0034995,
            "ArgumentOfPerigee": 198.7701,
            "MeanAnomaly": 164.1598,
            "MeanMotion": 1.00268362,
            "RevolutionNumber": "3540"
        },
        {
            "Name": "BEIDOU-3S M2S (C58)",
            "Line1": "1 40748U 15037A   24333.37120978 -.00000074  00000+0  00000+0 0  9991",
            "Line2": "2 40748  55.3553 321.4448 0013056 260.8570  99.0001  1.86229197 63586",
            "SatelliteNumber": "40748",
            "Classification": "U",
            "LaunchYear": "15",
            "LaunchNumber": "037",
            "PieceOfLaunch": "A",
            "EpochYear": "24",
            "EpochDay": 333.37120978,
            "FirstDerivativeMeanMotion": -7.4e-07,
            "SecondDerivativeMeanMotion": "00000+0",
            "BSTAR": "00000+0",
            "SetNumber": "999",
            "Inclination": 55.3553,
            "RAAN": 321.4448,
            "Eccentricity": 0.0013056,
            "ArgumentOfPerigee": 260.857,
            "MeanAnomaly": 99.0001,
            "MeanMotion": 1.86229197,
            "RevolutionNumber": "6358"
        },
        {
            "Name": "BEIDOU-3S M1S (C57)",
            "Line1": "1 40749U 15037B   24333.10753194 -.00000074  00000+0  00000+0 0  9995",
            "Line2": "2 40749  55.3582 321.4403 0004316 321.8755  38.0997  1.86227682 63586",
            "SatelliteNumber": "40749",
            "Classification": "U",
            "LaunchYear": "15",
            "LaunchNumber": "037",
            "PieceOfLaunch": "B",
            "EpochYear": "24",
            "EpochDay": 333.10753194,
            "FirstDerivativeMeanMotion": -7.4e-07,
            "SecondDerivativeMeanMotion": "00000+0",
            "BSTAR": "00000+0",
            "SetNumber": "999",
            "Inclination": 55.3582,
            "RAAN": 321.4403,
            "Eccentricity": 0.0004316,
            "ArgumentOfPerigee": 321.8755,
            "MeanAnomaly": 38.0997,
            "MeanMotion": 1.86227682,
            "RevolutionNumber": "6358"
        },
        {
            "Name": "BEIDOU-3S IGSO-2S (C56)",
            "Line1": "1 40938U 15053A   24332.78591235 -.00000161  00000+0  00000+0 0  9999",
            "Line2": "2 40938  50.1054 265.4917 0051634 189.4081 351.6829  1.00268923 33668",
            "SatelliteNumber": "40938",
            "Classification": "U",
            "LaunchYear": "15",
            "LaunchNumber": "053",
            "PieceOfLaunch": "A",
            "EpochYear": "24",
            "EpochDay": 332.78591235,
            "FirstDerivativeMeanMotion": -1.61e-06,
            "SecondDerivativeMeanMotion": "00000+0",
            "BSTAR": "00000+0",
            "SetNumber": "999",
            "Inclination": 50.1054,
            "RAAN": 265.4917,
            "Eccentricity": 0.0051634,
            "ArgumentOfPerigee": 189.4081,
            "MeanAnomaly": 351.6829,
            "MeanMotion": 1.00268923,
            "RevolutionNumber": "3366"
        },
        {
            "Name": "BEIDOU-2 IGSO-6 (C13)",
            "Line1": "1 41434U 16021A   24332.67638096 -.00000178  00000+0  00000+0 0  9990",
            "Line2": "2 41434  59.4204  43.7079 0055283 225.4251 138.0211  1.00283520 31805",
            "SatelliteNumber": "41434",
            "Classification": "U",
            "LaunchYear": "16",
            "LaunchNumber": "021",
            "PieceOfLaunch": "A",
            "EpochYear": "24",
            "EpochDay": 332.67638096,
            "FirstDerivativeMeanMotion": -1.78e-06,
            "SecondDerivativeMeanMotion": "00000+0",
            "BSTAR": "00000+0",
            "SetNumber": "999",
            "Inclination": 59.4204,
            "RAAN": 43.7079,
            "Eccentricity": 0.0055283,
            "ArgumentOfPerigee": 225.4251,
            "MeanAnomaly": 138.0211,
            "MeanMotion": 1.0028352,
            "RevolutionNumber": "3180"
        },
        {
            "Name": "BEIDOU-2 G7 (C03)",
            "Line1": "1 41586U 16037A   24333.53705816 -.00000328  00000+0  00000+0 0  9993",
            "Line2": "2 41586   1.7730  67.1875 0007410 345.7310 318.8491  1.00277062  1216",
            "SatelliteNumber": "41586",
            "Classification": "U",
            "LaunchYear": "16",
            "LaunchNumber": "037",
            "PieceOfLaunch": "A",
            "EpochYear": "24",
            "EpochDay": 333.53705816,
            "FirstDerivativeMeanMotion": -3.28e-06,
            "SecondDerivativeMeanMotion": "00000+0",
            "BSTAR": "00000+0",
            "SetNumber": "999",
            "Inclination": 1.773,
            "RAAN": 67.1875,
            "Eccentricity": 0.000741,
            "ArgumentOfPerigee": 345.731,
            "MeanAnomaly": 318.8491,
            "MeanMotion": 1.00277062,
            "RevolutionNumber": "121"
        },
        {
            "Name": "BEIDOU-3 M1 (C19)",
            "Line1": "1 43001U 17069A   24333.72000529 -.00000039  00000+0  00000+0 0  9992",
            "Line2": "2 43001  56.1999  81.7892 0008375 296.9683  62.9266  1.86231365 48075",
            "SatelliteNumber": "43001",
            "Classification": "U",
            "LaunchYear": "17",
            "LaunchNumber": "069",
            "PieceOfLaunch": "A",
            "EpochYear": "24",
            "EpochDay": 333.72000529,
            "FirstDerivativeMeanMotion": -3.9e-07,
            "SecondDerivativeMeanMotion": "00000+0",
            "BSTAR": "00000+0",
            "SetNumber": "999",
            "Inclination": 56.1999,
            "RAAN": 81.7892,
            "Eccentricity": 0.0008375,
            "ArgumentOfPerigee": 296.9683,
            "MeanAnomaly": 62.9266,
            "MeanMotion": 1.86231365,
            "RevolutionNumber": "4807"
        },
        {
            "Name": "BEIDOU-3 M2 (C20)",
            "Line1": "1 43002U 17069B   24333.65760413 -.00000039  00000+0  00000+0 0  9990",
            "Line2": "2 43002  56.1989  81.8270 0005799 326.9200  33.0240  1.86230973 48066",
            "SatelliteNumber": "43002",
            "Classification": "U",
            "LaunchYear": "17",
            "LaunchNumber": "069",
            "PieceOfLaunch": "B",
            "EpochYear": "24",
            "EpochDay": 333.65760413,
            "FirstDerivativeMeanMotion": -3.9e-07,
            "SecondDerivativeMeanMotion": "00000+0",
            "BSTAR": "00000+0",
            "SetNumber": "999",
            "Inclination": 56.1989,
            "RAAN": 81.827,
            "Eccentricity": 0.0005799,
            "ArgumentOfPerigee": 326.92,
            "MeanAnomaly": 33.024,
            "MeanMotion": 1.86230973,
            "RevolutionNumber": "4806"
        },
        {
            "Name": "BEIDOU-3 M7 (C27)",
            "Line1": "1 43107U 18003A   24332.33133315 -.00000077  00000+0  00000+0 0  9996",
            "Line2": "2 43107  54.8146 321.9995 0002375  60.4449 299.5868  1.86232542 46793",
            "SatelliteNumber": "43107",
            "Classification": "U",
            "LaunchYear": "18",
            "LaunchNumber": "003",
            "PieceOfLaunch": "A",
            "EpochYear": "24",
            "EpochDay": 332.33133315,
            "FirstDerivativeMeanMotion": -7.7e-07,
            "SecondDerivativeMeanMotion": "00000+0",
            "BSTAR": "00000+0",
            "SetNumber": "999",
            "Inclination": 54.8146,
            "RAAN": 321.9995,
            "Eccentricity": 0.0002375,
            "ArgumentOfPerigee": 60.4449,
            "MeanAnomaly": 299.5868,
            "MeanMotion": 1.86232542,
            "RevolutionNumber": "4679"
        }
    ]
}